[{"OBJECT_NAME":"ONEWEB-0632","OBJECT_ID":"2023-043AD","EPOCH":"2026-03-09T14:39:03.369024","MEAN_MOTION":13.15547691,"ECCENTRICITY":0.0001427,"INCLINATION":87.894,"RA_OF_ASC_NODE":279.0973,"ARG_OF_PERICENTER":93.7391,"MEAN_ANOMALY":266.3903,"EPHEMERIS_TYPE":0,"CLASSIFICATION_TYPE":"U","NORAD_CAT_ID":56073,"ELEMENT_SET_NO":999,"REV_AT_EPOCH":14333,"BSTAR":-0.00044453,"MEAN_MOTION_DOT":-1.55e-6,"MEAN_MOTION_DDOT":0},{"OBJECT_NAME":"SL-14 R\/B","OBJECT_ID":"1988-064B","EPOCH":"2026-03-09T22:26:58.344864","MEAN_MOTION":13.17272582,"ECCENTRICITY":0.00165949,"INCLINATION":82.5463,"RA_OF_ASC_NODE":44.0722,"ARG_OF_PERICENTER":124.4622,"MEAN_ANOMALY":289.5659,"EPHEMERIS_TYPE":0,"CLASSIFICATION_TYPE":"U","NORAD_CAT_ID":19337,"ELEMENT_SET_NO":999,"REV_AT_EPOCH":80867,"BSTAR":0.00033527684,"MEAN_MOTION_DOT":1.42e-6,"MEAN_MOTION_DDOT":0}]
